STARLINK-30498          
1 57971U 23151H   24121.16678020  .00015238  00000+0  11401-2 0  9998
2 57971  43.0035  65.8907 0001876 253.0121 107.0516 15.02553268 33549
STARLINK-30505          
1 57972U 23151J   24121.11695574  .00002876  00000+0  22786-3 0  9990
2 57972  43.0014  66.3763 0001308 257.9862 102.0833 15.02535177 33634
STARLINK-30502          
1 57973U 23151K   24121.18786685  .00001839  00000+0  15117-3 0  9990
2 57973  43.0054  66.0502 0001632 269.1149  90.9507 15.02541025 33643
STARLINK-30489          
1 57974U 23151L   24120.93072197  .00007422  00000+0  56397-3 0  9998
2 57974  43.0031  66.7095 0001421 259.3324 100.7358 15.02531129 33632
STARLINK-30503          
1 57975U 23151M   24120.91307979  .00002176  00000+0  17603-3 0  9994
2 57975  43.0036  67.4065 0000897 264.8428  95.2312 15.02546192 33628
STARLINK-30512          
1 57976U 23151N   24121.22086413  .00001845  00000+0  14850-3 0  9990
2 57976  43.0021  65.3858 0001242 258.6452 101.4252 15.03355017 33564
STARLINK-30509          
1 57977U 23151P   24120.93609505  .00016886  00000+0  12614-2 0  9997
2 57977  43.0028  80.3336 0001268 248.0041 112.0667 15.02557106 33475
STARLINK-30511          
1 57978U 23151Q   24121.19534461  .00001346  00000+0  11469-3 0  9998
2 57978  43.0087  78.8427 0001830 261.9163  98.1472 15.02542561 33497
STARLINK-30508          
1 57979U 23151R   24121.19201153  .00003373  00000+0  26463-3 0  9990
2 57979  43.0031  78.8134 0001015 295.3090  64.7647 15.02542852 33459
STARLINK-30504          
1 57980U 23151S   24120.91668981  .00026859  00000+0  17793-2 0  9996
2 57980  43.0042  78.0002 0002417 195.8158  23.0472 15.06828020  5850
STARLINK-30510          
1 57981U 23151T   24121.18869162  .00007985  00000+0  60525-3 0  9992
2 57981  43.0038  78.7881 0001439 257.0975 102.9706 15.02551797 33453
STARLINK-30507          
1 57982U 23151U   24120.91944647  .00016344  00000+0  12216-2 0  9997
2 57982  43.0036  80.2064 0001417 255.2231 104.8454 15.02553380 33477
STARLINK-30515          
1 57983U 23151V   24121.18202398  .00010951  00000+0  82415-3 0  9995
2 57983  43.0059  78.7370 0001439 271.5123  88.5554 15.02550173 33443
STARLINK-30516          
1 57984U 23151W   24121.17869235  .00000964  00000+0  86423-4 0  9991
2 57984  43.0033  78.7105 0001595 273.0086  87.0573 15.02553656 33501
STARLINK-30519          
1 57985U 23151X   24120.90945252  .00003787  00000+0  29527-3 0  9993
2 57985  43.0046  80.1334 0001608 255.2117 104.8547 15.02538691 33410
STARLINK-30537          
1 57991U 23153A   24121.16042429  .00000708  00000+0  67489-4 0  9995
2 57991  43.0024 156.0522 0001266 267.6660  92.4037 15.02550048 32498
STARLINK-30534          
1 57992U 23153B   24121.10394281  .00014281  00000+0  10695-2 0  9992
2 57992  43.0014 156.4838 0001246 261.2897  98.7804 15.02557714 32704
STARLINK-30536          
1 57993U 23153C   24120.82137804  .00000275  00000+0  35417-4 0  9996
2 57993  43.0014 157.8089 0001268 269.9377  90.1320 15.02538183 32753
STARLINK-30538          
1 57994U 23153D   24121.14711005  .00010320  00000+0  77748-3 0  9998
2 57994  43.0010 155.9491 0000642 305.7964  54.2819 15.02556199 32708
STARLINK-30517          
1 57995U 23153E   24120.47899144  .00005789  00000+0  44310-3 0  9997
2 57995  43.0016 159.5376 0000991 275.7247  84.3482 15.02550948 32700
STARLINK-30543          
1 57996U 23153F   24121.16176019  .00004203  00000+0  10801-3 0  9992
2 57996  43.0117  39.2034 0001675 258.1256 101.9413 15.40650613 34134
STARLINK-30523          
1 57997U 23153G   24120.81805396  .00007717  00000+0  58544-3 0  9990
2 57997  43.0017 157.7828 0001249 287.8729  72.1977 15.02554950 32757
STARLINK-30531          
1 57998U 23153H   24120.78144212  .00007969  00000+0  60441-3 0  9998
2 57998  43.0003 157.5123 0001572 269.9464  90.1199 15.02528566 32755
STARLINK-30552          
1 57999U 23153J   24120.80473596  .00008302  00000+0  62884-3 0  9997
2 57999  43.0014 157.6834 0001220 286.3249  73.7459 15.02539593 32750
STARLINK-30545          
1 58000U 23153K   24121.13379134  .00004087  00000+0  31746-3 0  9990
2 58000  43.0012 155.8476 0000751 268.2460  91.8297 15.02535172 32813
STARLINK-30535          
1 58001U 23153L   24120.79807235  .00004847  00000+0  37354-3 0  9995
2 58001  43.0018 157.6294 0001296 268.9975  91.0719 15.02543116 32752
STARLINK-30540          
1 58002U 23153M   24121.10060746  .00004486  00000+0  34677-3 0  9994
2 58002  43.0017 156.4432 0001249 260.2910  99.7791 15.02551876 32695
STARLINK-30546          
1 58003U 23153N   24120.79474210  .00002753  00000+0  21873-3 0  9993
2 58003  43.0009 157.6067 0000975 285.9934  74.0801 15.02543433 32754
STARLINK-30539          
1 58004U 23153P   24120.79141177  .00007835  00000+0  59429-3 0  9991
2 58004  43.0023 157.5810 0000932 280.0397  80.0340 15.02543459 32751
STARLINK-30530          
1 58005U 23153Q   24120.78476105  .00016027  00000+0  11985-2 0  9990
2 58005  43.0009 157.5303 0001258 274.1924  85.8775 15.02544513 32752
STARLINK-30526          
1 58006U 23153R   24121.06460560  .00000528  00000+0  54112-4 0  9991
2 58006  43.0008 131.0011 0001156 302.8888  57.1843 15.02543501 33081
STARLINK-30527          
1 58007U 23153S   24121.21290404  .00006303  00000+0  25059-3 0  9991
2 58007  43.0081  71.0714 0001129 266.8187  93.2535 15.25908371 33744
STARLINK-30522          
1 58008U 23153T   24120.80806115  .00011673  00000+0  87746-3 0  9995
2 58008  43.0009 157.6978 0001323 259.5625 100.5068 15.02549270 32757
STARLINK-30486          
1 58009U 23153U   24120.78808390  .00014168  00000+0  10614-2 0  9991
2 58009  43.0011 157.5508 0001399 265.8866  94.1816 15.02549433 32658
STARLINK-30520          
1 58010U 23153V   24121.11059582  .00012582  00000+0  94433-3 0  9992
2 58010  43.0009 156.5193 0001367 256.3131 103.7559 15.02556117 32693
STARLINK-30497          
1 58011U 23153W   24121.10726829  .00010124  00000+0  76304-3 0  9994
2 58011  43.0009 156.4906 0001131 265.9669  94.1044 15.02554931 32791
STARLINK-30525          
1 58012U 23153X   24120.83138020  .00013832  00000+0  10368-2 0  9990
2 58012  42.9997 157.8627 0000964 296.9631  63.1113 15.02542470 32751
STARLINK-30514          
1 58028U 23156A   24120.94801841 -.00003562  00000+0 -11601-3 0  9993
2 58028  53.1273 357.7385 0000903 117.0927 243.0164 15.28015535 32306
STARLINK-30518          
1 58029U 23156B   24121.07416567  .00004744  00000+0  18379-3 0  9996
2 58029  53.1228 357.1053 0001281 103.5115 256.6027 15.28024180 32328
STARLINK-30549          
1 58030U 23156C   24120.94271055  .00028990  00000+0  10550-2 0  9995
2 58030  53.1075 355.4630 0001850 113.5359 246.5835 15.28024210 32289
STARLINK-30556          
1 58031U 23156D   24120.98072593  .00029274  00000+0  10670-2 0  9995
2 58031  53.0733 358.4155 0000578 141.0256 219.0784 15.27967181 32294
STARLINK-30561          
1 58032U 23156E   24120.92408707  .00002722  00000+0  11101-3 0  9990
2 58032  53.1037 356.0651 0001038  65.6220 294.4887 15.27986721 32328
STARLINK-30562          
1 58033U 23156F   24120.95528869  .00006955  00000+0  49607-3 0  9990
2 58033  53.1253   3.3308 0001089  84.2069 275.9045 15.05579699 32221
STARLINK-30565          
1 58034U 23156G   24120.89610072  .00003289  00000+0  13133-3 0  9994
2 58034  53.1063 356.6075 0000951  79.6253 280.4854 15.28020744 32312
STARLINK-30438          
1 58035U 23156H   24121.05544062  .00011250  00000+0  41796-3 0  9992
2 58035  53.1241 356.9815 0001441  92.8463 267.2702 15.28039487 31982
STARLINK-30437          
1 58036U 23156J   24120.92028765  .00012295  00000+0  45565-3 0  9993
2 58036  53.1206 357.5613 0001606  71.3715 288.7459 15.28031139 32256
STARLINK-30533          
1 58037U 23156K   24120.94743060  .00005904  00000+0  42421-3 0  9995
2 58037  53.1256   3.2799 0001546 100.1636 259.9528 15.05567737 32225
STARLINK-30560          
1 58038U 23156L   24120.89197821  .00006319  00000+0  24059-3 0  9996
2 58038  53.1213 358.1019 0001306  95.0130 265.1018 15.28022581 32244
STARLINK-30559          
1 58039U 23156M   24120.96318562  .00011710  00000+0  82125-3 0  9991
2 58039  53.1282   3.3850 0001103  85.2965 274.8151 15.05594078 32228
STARLINK-30555          
1 58040U 23156N   24121.09070808 -.00003862  00000+0 -24615-3 0  9997
2 58040  53.1292   2.7623 0001555  92.4992 267.6176 15.05570471 32243
STARLINK-30542          
1 58041U 23156P   24120.97602556  .00006797  00000+0  25792-3 0  9990
2 58041  53.0719 357.6534 0001268  96.1292 263.9851 15.28006222 32304
STARLINK-30563          
1 58042U 23156Q   24120.95226476  .00022891  00000+0  83625-3 0  9994
2 58042  53.1032 356.9693 0000484  66.9896 293.1154 15.28030255 32311
STARLINK-30564          
1 58043U 23156R   24121.05958016 -.00023311  00000+0 -83120-3 0  9999
2 58043  53.1032 355.4877 0001196 140.1450 219.9637 15.28032985 32349
STARLINK-30547          
1 58044U 23156S   24120.91959539  .00002025  00000+0  15814-3 0  9997
2 58044  53.1205   3.0916 0001332  88.8760 271.2382 15.05573269 32221
STARLINK-30550          
1 58045U 23156T   24120.89407799  .00002573  00000+0  67103-4 0  9998
2 58045  53.1030 288.3275 0000439 137.5301 222.5739 15.42830354 33244
STARLINK-30548          
1 58046U 23156U   24121.08393491  .00011208  00000+0  78691-3 0  9992
2 58046  53.1284   2.7175 0001188  84.1081 276.0044 15.05593039 32187
STARLINK-30529          
1 58047U 23156V   24120.94237214  .00002106  00000+0  16372-3 0  9992
2 58047  53.1290   3.2508 0001337  88.7883 271.3260 15.05570188 32174
STARLINK-30554          
1 58048U 23156W   24120.94025624  .00004573  00000+0  33284-3 0  9994
2 58048  53.1265   3.2487 0001414  93.1241 266.9910 15.05580764 32170
STARLINK-30568          
1 58051U 23158A   24121.05490321  .00008553  00000+0  64720-3 0  9994
2 58051  43.0024 118.1322 0001321 262.1559  97.9133 15.02549677 31270
